[{"OBJECT_NAME":"STARLINK-2336","OBJECT_ID":"2021-021V","EPOCH":"2025-10-23T09:59:55.910976","MEAN_MOTION":15.06401456,"ECCENTRICITY":0.0001431,"INCLINATION":53.0531,"RA_OF_ASC_NODE":182.8609,"ARG_OF_PERICENTER":88.6152,"MEAN_ANOMALY":271.5001,"EPHEMERIS_TYPE":0,"CLASSIFICATION_TYPE":"U","NORAD_CAT_ID":47879,"ELEMENT_SET_NO":999,"REV_AT_EPOCH":25546,"BSTAR":9.3382e-5,"MEAN_MOTION_DOT":1.11e-5,"MEAN_MOTION_DDOT":0},{"OBJECT_NAME":"STARLINK-2340","OBJECT_ID":"2021-021Y","EPOCH":"2025-10-23T16:00:03.998880","MEAN_MOTION":15.66081223,"ECCENTRICITY":0.0004364,"INCLINATION":53.0376,"RA_OF_ASC_NODE":89.3254,"ARG_OF_PERICENTER":251.0015,"MEAN_ANOMALY":18.7243,"EPHEMERIS_TYPE":0,"CLASSIFICATION_TYPE":"U","NORAD_CAT_ID":47882,"ELEMENT_SET_NO":999,"REV_AT_EPOCH":585,"BSTAR":0.0015342,"MEAN_MOTION_DOT":0.00162995,"MEAN_MOTION_DDOT":0},{"OBJECT_NAME":"STARLINK-2342","OBJECT_ID":"2021-021Z","EPOCH":"2025-10-23T02:19:29.141184","MEAN_MOTION":15.06387273,"ECCENTRICITY":0.00013854,"INCLINATION":53.0535,"RA_OF_ASC_NODE":174.2999,"ARG_OF_PERICENTER":109.8766,"MEAN_ANOMALY":250.2372,"EPHEMERIS_TYPE":0,"CLASSIFICATION_TYPE":"U","NORAD_CAT_ID":47883,"ELEMENT_SET_NO":999,"REV_AT_EPOCH":25555,"BSTAR":4.0265724e-5,"MEAN_MOTION_DOT":3.18e-6,"MEAN_MOTION_DDOT":0},{"OBJECT_NAME":"STARLINK-2343","OBJECT_ID":"2021-021AA","EPOCH":"2025-10-23T09:52:38.555040","MEAN_MOTION":15.06403322,"ECCENTRICITY":0.0001517,"INCLINATION":53.054,"RA_OF_ASC_NODE":177.8876,"ARG_OF_PERICENTER":81.6949,"MEAN_ANOMALY":278.4212,"EPHEMERIS_TYPE":0,"CLASSIFICATION_TYPE":"U","NORAD_CAT_ID":47884,"ELEMENT_SET_NO":999,"REV_AT_EPOCH":25535,"BSTAR":0.0002866,"MEAN_MOTION_DOT":3.99e-5,"MEAN_MOTION_DDOT":0},{"OBJECT_NAME":"STARLINK-2346","OBJECT_ID":"2021-021AD","EPOCH":"2025-10-23T02:21:28.741248","MEAN_MOTION":15.06395472,"ECCENTRICITY":9.377e-5,"INCLINATION":53.0533,"RA_OF_ASC_NODE":179.2935,"ARG_OF_PERICENTER":83.4972,"MEAN_ANOMALY":276.6124,"EPHEMERIS_TYPE":0,"CLASSIFICATION_TYPE":"U","NORAD_CAT_ID":47887,"ELEMENT_SET_NO":999,"REV_AT_EPOCH":25531,"BSTAR":0.00051534389,"MEAN_MOTION_DOT":7.402e-5,"MEAN_MOTION_DDOT":0},{"OBJECT_NAME":"STARLINK-2354","OBJECT_ID":"2021-021AL","EPOCH":"2025-10-23T00:41:58.215264","MEAN_MOTION":15.06388448,"ECCENTRICITY":0.00014422,"INCLINATION":53.0537,"RA_OF_ASC_NODE":169.6034,"ARG_OF_PERICENTER":83.9739,"MEAN_ANOMALY":276.1414,"EPHEMERIS_TYPE":0,"CLASSIFICATION_TYPE":"U","NORAD_CAT_ID":47894,"ELEMENT_SET_NO":999,"REV_AT_EPOCH":25539,"BSTAR":0.00027790366,"MEAN_MOTION_DOT":3.859e-5,"MEAN_MOTION_DDOT":0},{"OBJECT_NAME":"STARLINK-2355","OBJECT_ID":"2021-021AM","EPOCH":"2025-10-23T15:17:44.192256","MEAN_MOTION":15.06401829,"ECCENTRICITY":0.0001476,"INCLINATION":53.055,"RA_OF_ASC_NODE":166.8734,"ARG_OF_PERICENTER":98.1891,"MEAN_ANOMALY":261.9265,"EPHEMERIS_TYPE":0,"CLASSIFICATION_TYPE":"U","NORAD_CAT_ID":47895,"ELEMENT_SET_NO":999,"REV_AT_EPOCH":25551,"BSTAR":0.00019159,"MEAN_MOTION_DOT":2.573e-5,"MEAN_MOTION_DDOT":0},{"OBJECT_NAME":"STARLINK-2356","OBJECT_ID":"2021-021AN","EPOCH":"2025-10-23T02:23:27.096288","MEAN_MOTION":15.0641433,"ECCENTRICITY":0.00012128,"INCLINATION":53.0527,"RA_OF_ASC_NODE":184.2868,"ARG_OF_PERICENTER":103.2566,"MEAN_ANOMALY":256.8558,"EPHEMERIS_TYPE":0,"CLASSIFICATION_TYPE":"U","NORAD_CAT_ID":47896,"ELEMENT_SET_NO":999,"REV_AT_EPOCH":25519,"BSTAR":0.00053782065,"MEAN_MOTION_DOT":7.741e-5,"MEAN_MOTION_DDOT":0},{"OBJECT_NAME":"STARLINK-2358","OBJECT_ID":"2021-021AQ","EPOCH":"2025-10-23T15:07:07.208256","MEAN_MOTION":15.06398054,"ECCENTRICITY":0.0001413,"INCLINATION":53.055,"RA_OF_ASC_NODE":166.9076,"ARG_OF_PERICENTER":102.4481,"MEAN_ANOMALY":257.6666,"EPHEMERIS_TYPE":0,"CLASSIFICATION_TYPE":"U","NORAD_CAT_ID":47898,"ELEMENT_SET_NO":999,"REV_AT_EPOCH":25548,"BSTAR":0.0001412,"MEAN_MOTION_DOT":1.822e-5,"MEAN_MOTION_DDOT":0},{"OBJECT_NAME":"STARLINK-2361","OBJECT_ID":"2021-021AT","EPOCH":"2025-10-23T14:47:14.021664","MEAN_MOTION":15.06411478,"ECCENTRICITY":0.0001441,"INCLINATION":53.0524,"RA_OF_ASC_NODE":157.0532,"ARG_OF_PERICENTER":86.5683,"MEAN_ANOMALY":273.547,"EPHEMERIS_TYPE":0,"CLASSIFICATION_TYPE":"U","NORAD_CAT_ID":47901,"ELEMENT_SET_NO":999,"REV_AT_EPOCH":25566,"BSTAR":0.00049515,"MEAN_MOTION_DOT":7.104e-5,"MEAN_MOTION_DDOT":0},{"OBJECT_NAME":"STARLINK-2363","OBJECT_ID":"2021-021AV","EPOCH":"2025-10-23T08:34:17.832576","MEAN_MOTION":15.06426485,"ECCENTRICITY":0.0001623,"INCLINATION":53.053,"RA_OF_ASC_NODE":158.1219,"ARG_OF_PERICENTER":93.6066,"MEAN_ANOMALY":266.5108,"EPHEMERIS_TYPE":0,"CLASSIFICATION_TYPE":"U","NORAD_CAT_ID":47903,"ELEMENT_SET_NO":999,"REV_AT_EPOCH":25597,"BSTAR":0.0010045,"MEAN_MOTION_DOT":0.00014722,"MEAN_MOTION_DDOT":0},{"OBJECT_NAME":"STARLINK-2364","OBJECT_ID":"2021-021AW","EPOCH":"2025-10-23T08:30:20.273184","MEAN_MOTION":15.06382346,"ECCENTRICITY":1.39e-5,"INCLINATION":53.0519,"RA_OF_ASC_NODE":158.1432,"ARG_OF_PERICENTER":256.4888,"MEAN_ANOMALY":103.6086,"EPHEMERIS_TYPE":0,"CLASSIFICATION_TYPE":"U","NORAD_CAT_ID":47904,"ELEMENT_SET_NO":999,"REV_AT_EPOCH":25561,"BSTAR":0.0010115,"MEAN_MOTION_DOT":0.0001481,"MEAN_MOTION_DDOT":0},{"OBJECT_NAME":"STARLINK-2367","OBJECT_ID":"2021-021AZ","EPOCH":"2025-10-23T02:16:08.006304","MEAN_MOTION":15.06471928,"ECCENTRICITY":0.0001487,"INCLINATION":53.0521,"RA_OF_ASC_NODE":179.3093,"ARG_OF_PERICENTER":83.7598,"MEAN_ANOMALY":276.356,"EPHEMERIS_TYPE":0,"CLASSIFICATION_TYPE":"U","NORAD_CAT_ID":47907,"ELEMENT_SET_NO":999,"REV_AT_EPOCH":25527,"BSTAR":0.0015372662,"MEAN_MOTION_DOT":0.00022735,"MEAN_MOTION_DDOT":0},{"OBJECT_NAME":"STARLINK-2368","OBJECT_ID":"2021-021BA","EPOCH":"2025-10-07T16:00:03.000096","MEAN_MOTION":15.27935711,"ECCENTRICITY":0.0001287,"INCLINATION":53.0559,"RA_OF_ASC_NODE":247.6542,"ARG_OF_PERICENTER":89.3072,"MEAN_ANOMALY":149.1334,"EPHEMERIS_TYPE":0,"CLASSIFICATION_TYPE":"U","NORAD_CAT_ID":47908,"ELEMENT_SET_NO":999,"REV_AT_EPOCH":576,"BSTAR":0.033101,"MEAN_MOTION_DOT":0.00993355,"MEAN_MOTION_DDOT":0},{"OBJECT_NAME":"STARLINK-2370","OBJECT_ID":"2021-021BC","EPOCH":"2025-10-23T15:12:27.940608","MEAN_MOTION":15.06401395,"ECCENTRICITY":9.59e-5,"INCLINATION":53.0533,"RA_OF_ASC_NODE":167.0481,"ARG_OF_PERICENTER":96.4557,"MEAN_ANOMALY":263.6541,"EPHEMERIS_TYPE":0,"CLASSIFICATION_TYPE":"U","NORAD_CAT_ID":47910,"ELEMENT_SET_NO":999,"REV_AT_EPOCH":25554,"BSTAR":0.00025466,"MEAN_MOTION_DOT":3.514e-5,"MEAN_MOTION_DDOT":0},{"OBJECT_NAME":"STARLINK-2371","OBJECT_ID":"2021-021BD","EPOCH":"2025-10-22T10:33:25.853184","MEAN_MOTION":15.06400237,"ECCENTRICITY":0.0001584,"INCLINATION":53.0541,"RA_OF_ASC_NODE":187.4891,"ARG_OF_PERICENTER":85.9684,"MEAN_ANOMALY":274.1486,"EPHEMERIS_TYPE":0,"CLASSIFICATION_TYPE":"U","NORAD_CAT_ID":47911,"ELEMENT_SET_NO":999,"REV_AT_EPOCH":25498,"BSTAR":0.00033111075,"MEAN_MOTION_DOT":4.654e-5,"MEAN_MOTION_DDOT":0}]
