STARLINK-2336           
1 47879U 21021V   25296.41661935  .00001110  00000+0  93382-4 0  9991
2 47879  53.0531 182.8609 0001430  88.6152 271.5001 15.06401456255466
STARLINK-2340           
1 47882U 21021Y   25296.66671296  .00162995  00000+0  15342-2 0  9990
2 47882  53.0376  89.3254 0004363 251.0015  18.7243 15.66081223  5853
STARLINK-2342           
1 47883U 21021Z   25296.09686506  .00000318  00000+0  40266-4 0  9993
2 47883  53.0535 174.2999 0001385 109.8766 250.2372 15.06387273255553
STARLINK-2343           
1 47884U 21021AA  25296.41155736  .00003990  00000+0  28660-3 0  9998
2 47884  53.0540 177.8876 0001516  81.6949 278.4212 15.06403322255356
STARLINK-2346           
1 47887U 21021AD  25296.09824932  .00007402  00000+0  51534-3 0  9994
2 47887  53.0533 179.2935 0000937  83.4972 276.6124 15.06395472255319
STARLINK-2354           
1 47894U 21021AL  25296.02914601  .00003859  00000+0  27790-3 0  9997
2 47894  53.0537 169.6034 0001442  83.9739 276.1414 15.06388448255392
STARLINK-2355           
1 47895U 21021AM  25296.63731704  .00002573  00000+0  19159-3 0  9998
2 47895  53.0550 166.8734 0001475  98.1891 261.9265 15.06401829255516
STARLINK-2356           
1 47896U 21021AN  25296.09961917  .00007741  00000+0  53782-3 0  9992
2 47896  53.0527 184.2868 0001212 103.2566 256.8558 15.06414330255192
STARLINK-2358           
1 47898U 21021AQ  25296.62994454  .00001822  00000+0  14120-3 0  9992
2 47898  53.0550 166.9076 0001413 102.4481 257.6666 15.06398054255483
STARLINK-2361           
1 47901U 21021AT  25296.61613452  .00007104  00000+0  49515-3 0  9997
2 47901  53.0524 157.0532 0001441  86.5683 273.5470 15.06411478255660
STARLINK-2363           
1 47903U 21021AV  25296.35715085  .00014722  00000+0  10045-2 0  9994
2 47903  53.0530 158.1219 0001622  93.6066 266.5108 15.06426485255976
STARLINK-2364           
1 47904U 21021AW  25296.35440131  .00014810  00000+0  10115-2 0  9998
2 47904  53.0519 158.1432 0000139 256.4888 103.6086 15.06382346255618
STARLINK-2367           
1 47907U 21021AZ  25296.09453711  .00022735  00000+0  15373-2 0  9996
2 47907  53.0521 179.3093 0001487  83.7598 276.3560 15.06471928255270
STARLINK-2368           
1 47908U 21021BA  25280.66670139  .00993355  00000+0  33101-1 0  9991
2 47908  53.0559 247.6542 0001287  89.3072 149.1334 15.27935711  5768
STARLINK-2370           
1 47910U 21021BC  25296.63365673  .00003514  00000+0  25466-3 0  9998
2 47910  53.0533 167.0481 0000958  96.4557 263.6541 15.06401395255549
STARLINK-2371           
1 47911U 21021BD  25295.43988256  .00004654  00000+0  33111-3 0  9996
2 47911  53.0541 187.4891 0001584  85.9684 274.1486 15.06400237254986
